CCSDS_OMM_VERS = 2.0
CREATION_DATE  = 
ORIGINATOR     = 

OBJECT_NAME    = COSMOS 2058
OBJECT_ID      = 1990-010A
CENTER_NAME    = EARTH
REF_FRAME      = TEME
TIME_SYSTEM    = UTC
MEAN_ELEMENT_THEORY = SGP/SGP4

EPOCH          = 2026-03-13T08:32:21.482016
MEAN_MOTION    = 15.11357579
ECCENTRICITY   = .00088148
INCLINATION    = 82.4667
RA_OF_ASC_NODE = 43.8151
ARG_OF_PERICENTER = 332.3646
MEAN_ANOMALY   = 27.7114

EPHEMERIS_TYPE = 0
CLASSIFICATION_TYPE = U
NORAD_CAT_ID   = 20465
ELEMENT_SET_NO = 999
REV_AT_EPOCH   = 94279
BSTAR          = .26988783E-3
MEAN_MOTION_DOT = .4582E-4
MEAN_MOTION_DDOT = 0

CCSDS_OMM_VERS = 2.0
CREATION_DATE  = 
ORIGINATOR     = 

OBJECT_NAME    = SL-14 R/B
OBJECT_ID      = 1990-010B
CENTER_NAME    = EARTH
REF_FRAME      = TEME
TIME_SYSTEM    = UTC
MEAN_ELEMENT_THEORY = SGP/SGP4

EPOCH          = 2026-03-13T11:08:01.129344
MEAN_MOTION    = 14.83572634
ECCENTRICITY   = .00183868
INCLINATION    = 82.4985
RA_OF_ASC_NODE = 263.8423
ARG_OF_PERICENTER = 288.9345
MEAN_ANOMALY   = 70.9877

EPHEMERIS_TYPE = 0
CLASSIFICATION_TYPE = U
NORAD_CAT_ID   = 20466
ELEMENT_SET_NO = 999
REV_AT_EPOCH   = 92904
BSTAR          = .61291075E-4
MEAN_MOTION_DOT = .53E-5
MEAN_MOTION_DDOT = 0

CCSDS_OMM_VERS = 2.0
CREATION_DATE  = 
ORIGINATOR     = 

OBJECT_NAME    = SL-14 R/B
OBJECT_ID      = 1990-018B
CENTER_NAME    = EARTH
REF_FRAME      = TEME
TIME_SYSTEM    = UTC
MEAN_ELEMENT_THEORY = SGP/SGP4

EPOCH          = 2026-03-13T08:24:30.341952
MEAN_MOTION    = 14.82149514
ECCENTRICITY   = .0017632
INCLINATION    = 82.5209
RA_OF_ASC_NODE = 219.6678
ARG_OF_PERICENTER = 80.9566
MEAN_ANOMALY   = 279.3643

EPHEMERIS_TYPE = 0
CLASSIFICATION_TYPE = U
NORAD_CAT_ID   = 20511
ELEMENT_SET_NO = 999
REV_AT_EPOCH   = 92312
BSTAR          = .75927046E-4
MEAN_MOTION_DOT = .629E-5
MEAN_MOTION_DDOT = 0

CCSDS_OMM_VERS = 2.0
CREATION_DATE  = 
ORIGINATOR     = 

OBJECT_NAME    = HST
OBJECT_ID      = 1990-037B
CENTER_NAME    = EARTH
REF_FRAME      = TEME
TIME_SYSTEM    = UTC
MEAN_ELEMENT_THEORY = SGP/SGP4

EPOCH          = 2026-03-13T03:21:31.276512
MEAN_MOTION    = 15.29543468
ECCENTRICITY   = .00017991
INCLINATION    = 28.4723
RA_OF_ASC_NODE = 16.4622
ARG_OF_PERICENTER = 159.6118
MEAN_ANOMALY   = 200.4550

EPHEMERIS_TYPE = 0
CLASSIFICATION_TYPE = U
NORAD_CAT_ID   = 20580
ELEMENT_SET_NO = 999
REV_AT_EPOCH   = 77384
BSTAR          = .27135216E-3
MEAN_MOTION_DOT = .823E-4
MEAN_MOTION_DDOT = 0

CCSDS_OMM_VERS = 2.0
CREATION_DATE  = 
ORIGINATOR     = 

OBJECT_NAME    = SL-16 R/B
OBJECT_ID      = 1990-046B
CENTER_NAME    = EARTH
REF_FRAME      = TEME
TIME_SYSTEM    = UTC
MEAN_ELEMENT_THEORY = SGP/SGP4

EPOCH          = 2026-03-13T14:02:44.942496
MEAN_MOTION    = 14.15011273
ECCENTRICITY   = .00162091
INCLINATION    = 70.9979
RA_OF_ASC_NODE = 289.7330
ARG_OF_PERICENTER = 294.3984
MEAN_ANOMALY   = 65.5447

EPHEMERIS_TYPE = 0
CLASSIFICATION_TYPE = U
NORAD_CAT_ID   = 20625
ELEMENT_SET_NO = 999
REV_AT_EPOCH   = 84894
BSTAR          = -.38300629E-4
MEAN_MOTION_DOT = -.122E-5
MEAN_MOTION_DDOT = 0

CCSDS_OMM_VERS = 2.0
CREATION_DATE  = 
ORIGINATOR     = 

OBJECT_NAME    = COSMOS 2084
OBJECT_ID      = 1990-055A
CENTER_NAME    = EARTH
REF_FRAME      = TEME
TIME_SYSTEM    = UTC
MEAN_ELEMENT_THEORY = SGP/SGP4

EPOCH          = 2026-03-13T01:01:25.648608
MEAN_MOTION    = 15.05673287
ECCENTRICITY   = .00165604
INCLINATION    = 62.7918
RA_OF_ASC_NODE = 324.1428
ARG_OF_PERICENTER = 190.8182
MEAN_ANOMALY   = 169.2564

EPHEMERIS_TYPE = 0
CLASSIFICATION_TYPE = U
NORAD_CAT_ID   = 20663
ELEMENT_SET_NO = 999
REV_AT_EPOCH   = 93682
BSTAR          = .20954549E-3
MEAN_MOTION_DOT = .2848E-4
MEAN_MOTION_DDOT = 0

CCSDS_OMM_VERS = 2.0
CREATION_DATE  = 
ORIGINATOR     = 

OBJECT_NAME    = SL-6 R/B(2)
OBJECT_ID      = 1990-055D
CENTER_NAME    = EARTH
REF_FRAME      = TEME
TIME_SYSTEM    = UTC
MEAN_ELEMENT_THEORY = SGP/SGP4

EPOCH          = 2026-03-13T11:53:24.229248
MEAN_MOTION    = 15.03616013
ECCENTRICITY   = .00254052
INCLINATION    = 62.7824
RA_OF_ASC_NODE = 240.9081
ARG_OF_PERICENTER = 347.9553
MEAN_ANOMALY   = 12.0936

EPHEMERIS_TYPE = 0
CLASSIFICATION_TYPE = U
NORAD_CAT_ID   = 20666
ELEMENT_SET_NO = 999
REV_AT_EPOCH   = 93876
BSTAR          = .20313348E-3
MEAN_MOTION_DOT = .2609E-4
MEAN_MOTION_DDOT = 0

CCSDS_OMM_VERS = 2.0
CREATION_DATE  = 
ORIGINATOR     = 

OBJECT_NAME    = SL-8 R/B
OBJECT_ID      = 1990-078B
CENTER_NAME    = EARTH
REF_FRAME      = TEME
TIME_SYSTEM    = UTC
MEAN_ELEMENT_THEORY = SGP/SGP4

EPOCH          = 2026-03-13T11:20:49.819776
MEAN_MOTION    = 14.89192380
ECCENTRICITY   = .03614402
INCLINATION    = 82.9000
RA_OF_ASC_NODE = 247.9075
ARG_OF_PERICENTER = 1.2789
MEAN_ANOMALY   = 358.9264

EPHEMERIS_TYPE = 0
CLASSIFICATION_TYPE = U
NORAD_CAT_ID   = 20775
ELEMENT_SET_NO = 999
REV_AT_EPOCH   = 80986
BSTAR          = .43483652E-3
MEAN_MOTION_DOT = .14757E-3
MEAN_MOTION_DDOT = 0

CCSDS_OMM_VERS = 2.0
CREATION_DATE  = 
ORIGINATOR     = 

OBJECT_NAME    = SL-8 R/B
OBJECT_ID      = 1991-006B
CENTER_NAME    = EARTH
REF_FRAME      = TEME
TIME_SYSTEM    = UTC
MEAN_ELEMENT_THEORY = SGP/SGP4

EPOCH          = 2026-03-13T07:53:10.970016
MEAN_MOTION    = 13.77494777
ECCENTRICITY   = .00228644
INCLINATION    = 82.9465
RA_OF_ASC_NODE = 167.3408
ARG_OF_PERICENTER = 28.4025
MEAN_ANOMALY   = 31.7202

EPHEMERIS_TYPE = 0
CLASSIFICATION_TYPE = U
NORAD_CAT_ID   = 21088
ELEMENT_SET_NO = 999
REV_AT_EPOCH   = 76457
BSTAR          = .55831595E-4
MEAN_MOTION_DOT = .71E-6
MEAN_MOTION_DDOT = 0

CCSDS_OMM_VERS = 2.0
CREATION_DATE  = 
ORIGINATOR     = 

OBJECT_NAME    = OKEAN-3
OBJECT_ID      = 1991-039A
CENTER_NAME    = EARTH
REF_FRAME      = TEME
TIME_SYSTEM    = UTC
MEAN_ELEMENT_THEORY = SGP/SGP4

EPOCH          = 2026-03-13T04:52:40.205568
MEAN_MOTION    = 15.04834904
ECCENTRICITY   = .00136232
INCLINATION    = 82.5199
RA_OF_ASC_NODE = 333.4399
ARG_OF_PERICENTER = 324.4892
MEAN_ANOMALY   = 35.5426

EPHEMERIS_TYPE = 0
CLASSIFICATION_TYPE = U
NORAD_CAT_ID   = 21397
ELEMENT_SET_NO = 999
REV_AT_EPOCH   = 86556
BSTAR          = .27158174E-3
MEAN_MOTION_DOT = .387E-4
MEAN_MOTION_DDOT = 0

CCSDS_OMM_VERS = 2.0
CREATION_DATE  = 
ORIGINATOR     = 

OBJECT_NAME    = COSMOS 2151
OBJECT_ID      = 1991-042A
CENTER_NAME    = EARTH
REF_FRAME      = TEME
TIME_SYSTEM    = UTC
MEAN_ELEMENT_THEORY = SGP/SGP4

EPOCH          = 2026-03-13T13:15:05.246784
MEAN_MOTION    = 15.00121425
ECCENTRICITY   = .00138101
INCLINATION    = 82.4930
RA_OF_ASC_NODE = 79.9491
ARG_OF_PERICENTER = 51.8745
MEAN_ANOMALY   = 308.3722

EPHEMERIS_TYPE = 0
CLASSIFICATION_TYPE = U
NORAD_CAT_ID   = 21422
ELEMENT_SET_NO = 999
REV_AT_EPOCH   = 86377
BSTAR          = .21621929E-3
MEAN_MOTION_DOT = .2728E-4
MEAN_MOTION_DDOT = 0

CCSDS_OMM_VERS = 2.0
CREATION_DATE  = 
ORIGINATOR     = 

OBJECT_NAME    = SL-14 R/B
OBJECT_ID      = 1991-042B
CENTER_NAME    = EARTH
REF_FRAME      = TEME
TIME_SYSTEM    = UTC
MEAN_ELEMENT_THEORY = SGP/SGP4

EPOCH          = 2026-03-13T09:41:56.876064
MEAN_MOTION    = 14.81834116
ECCENTRICITY   = .0015987
INCLINATION    = 82.4931
RA_OF_ASC_NODE = 216.6992
ARG_OF_PERICENTER = 225.5157
MEAN_ANOMALY   = 134.4752

EPHEMERIS_TYPE = 0
CLASSIFICATION_TYPE = U
NORAD_CAT_ID   = 21423
ELEMENT_SET_NO = 999
REV_AT_EPOCH   = 85362
BSTAR          = .74301827E-4
MEAN_MOTION_DOT = .611E-5
MEAN_MOTION_DDOT = 0

